[{"OBJECT_NAME":"STARLINK-35237","OBJECT_ID":"2025-210Z","EPOCH":"2026-03-09T22:23:04.829856","MEAN_MOTION":15.30197139,"ECCENTRICITY":0.00012135,"INCLINATION":53.1592,"RA_OF_ASC_NODE":306.2754,"ARG_OF_PERICENTER":94.9143,"MEAN_ANOMALY":265.1996,"EPHEMERIS_TYPE":0,"CLASSIFICATION_TYPE":"U","NORAD_CAT_ID":65645,"ELEMENT_SET_NO":999,"REV_AT_EPOCH":2776,"BSTAR":0.0005664326,"MEAN_MOTION_DOT":0.00016453,"MEAN_MOTION_DDOT":0},{"OBJECT_NAME":"PEGASUS DEB","OBJECT_ID":"1994-029AER","EPOCH":"2026-02-26T06:39:21.581568","MEAN_MOTION":15.03561005,"ECCENTRICITY":0.01227406,"INCLINATION":81.7323,"RA_OF_ASC_NODE":356.2383,"ARG_OF_PERICENTER":77.7128,"MEAN_ANOMALY":283.7806,"EPHEMERIS_TYPE":0,"CLASSIFICATION_TYPE":"U","NORAD_CAT_ID":39306,"ELEMENT_SET_NO":999,"REV_AT_EPOCH":9218,"BSTAR":0.0046128236,"MEAN_MOTION_DOT":0.00074995,"MEAN_MOTION_DDOT":0}]
